[{"OBJECT_NAME":"OBJECT C","OBJECT_ID":"2022-023C","EPOCH":"2026-03-09T22:57:27.819936","MEAN_MOTION":15.18202357,"ECCENTRICITY":0.00963055,"INCLINATION":63.4862,"RA_OF_ASC_NODE":247.9876,"ARG_OF_PERICENTER":349.5574,"MEAN_ANOMALY":10.3536,"EPHEMERIS_TYPE":0,"CLASSIFICATION_TYPE":"U","NORAD_CAT_ID":51948,"ELEMENT_SET_NO":999,"REV_AT_EPOCH":22265,"BSTAR":0.00022353772,"MEAN_MOTION_DOT":4.943e-5,"MEAN_MOTION_DDOT":0},{"OBJECT_NAME":"STARLINK-31836","OBJECT_ID":"2024-088S","EPOCH":"2026-03-09T12:20:50.332416","MEAN_MOTION":15.30181197,"ECCENTRICITY":0.00012888,"INCLINATION":53.1605,"RA_OF_ASC_NODE":140.8406,"ARG_OF_PERICENTER":114.5966,"MEAN_ANOMALY":245.517,"EPHEMERIS_TYPE":0,"CLASSIFICATION_TYPE":"U","NORAD_CAT_ID":59724,"ELEMENT_SET_NO":999,"REV_AT_EPOCH":10365,"BSTAR":7.305874e-6,"MEAN_MOTION_DOT":-1.43e-6,"MEAN_MOTION_DDOT":0}]
